{
  "norad_id": 58375,
  "name": "STARLINK-30894",
  "history": [
    {
      "epoch": "2026-03-28T21:38:57.259104",
      "apogee_km": 476.03661330303476,
      "perigee_km": 474.4181227738791,
      "latitude_deg": -42.74743813935875,
      "longitude_deg": 104.09695455990732,
      "semi_major_axis_km": 6853.364368038457,
      "eccentricity": 0.00011808,
      "inclination_deg": 53.1594,
      "raan_deg": 271.7849,
      "arg_perigee_deg": 91.9903,
      "mean_anomaly_deg": 268.1233,
      "mean_motion_rev_day": 15.30195881
    },
    {
      "epoch": "2026-03-28T23:13:00.359328",
      "apogee_km": 476.023841000645,
      "perigee_km": 474.4242665306965,
      "latitude_deg": 5.8778033319069705,
      "longitude_deg": 110.36706592002884,
      "semi_major_axis_km": 6853.3610537656705,
      "eccentricity": 0.0001167,
      "inclination_deg": 53.1592,
      "raan_deg": 271.4817,
      "arg_perigee_deg": 90.7888,
      "mean_anomaly_deg": 269.3247,
      "mean_motion_rev_day": 15.30196991
    }
  ]
}